[{"OBJECT_NAME":"STARLINK-34989","OBJECT_ID":"2025-179S","EPOCH":"2026-03-09T16:50:12.215328","MEAN_MOTION":15.05647599,"ECCENTRICITY":0.00011052,"INCLINATION":97.6025,"RA_OF_ASC_NODE":113.0321,"ARG_OF_PERICENTER":124.2486,"MEAN_ANOMALY":235.8845,"EPHEMERIS_TYPE":0,"CLASSIFICATION_TYPE":"U","NORAD_CAT_ID":65251,"ELEMENT_SET_NO":999,"REV_AT_EPOCH":3199,"BSTAR":4.1197212e-5,"MEAN_MOTION_DOT":5.34e-6,"MEAN_MOTION_DDOT":0},{"OBJECT_NAME":"SL-6 R\/B(2)","OBJECT_ID":"1990-055D","EPOCH":"2026-03-09T21:41:59.551872","MEAN_MOTION":15.03595553,"ECCENTRICITY":0.00247741,"INCLINATION":62.7825,"RA_OF_ASC_NODE":253.121,"ARG_OF_PERICENTER":347.1508,"MEAN_ANOMALY":12.8957,"EPHEMERIS_TYPE":0,"CLASSIFICATION_TYPE":"U","NORAD_CAT_ID":20666,"ELEMENT_SET_NO":999,"REV_AT_EPOCH":93822,"BSTAR":0.00020900577,"MEAN_MOTION_DOT":2.688e-5,"MEAN_MOTION_DDOT":0}]
